[{"OBJECT_NAME":"CARTOSAT-3","OBJECT_ID":"2019-081A","EPOCH":"2026-03-09T23:11:39.074208","MEAN_MOTION":15.19179249,"ECCENTRICITY":0.00130254,"INCLINATION":97.4422,"RA_OF_ASC_NODE":132.3705,"ARG_OF_PERICENTER":136.2078,"MEAN_ANOMALY":224.0192,"EPHEMERIS_TYPE":0,"CLASSIFICATION_TYPE":"U","NORAD_CAT_ID":44804,"ELEMENT_SET_NO":999,"REV_AT_EPOCH":34840,"BSTAR":0.0001965971,"MEAN_MOTION_DOT":4.075e-5,"MEAN_MOTION_DDOT":0},{"OBJECT_NAME":"STARLINK-30162","OBJECT_ID":"2023-105S","EPOCH":"2026-03-09T22:00:01.999584","MEAN_MOTION":15.15680844,"ECCENTRICITY":0.00014722,"INCLINATION":43.0007,"RA_OF_ASC_NODE":246.8903,"ARG_OF_PERICENTER":274.6501,"MEAN_ANOMALY":98.8321,"EPHEMERIS_TYPE":0,"CLASSIFICATION_TYPE":"U","NORAD_CAT_ID":57446,"ELEMENT_SET_NO":999,"REV_AT_EPOCH":578,"BSTAR":0.034975087,"MEAN_MOTION_DOT":0.00729589,"MEAN_MOTION_DDOT":0}]
